CAS-2T & KS-1Q          
1 41847U 16066G   21168.12709622  .00000139  00000-0  31833-4 0  9995
2 41847  98.6010 227.2572 0364471 221.2304 136.0830 14.38196722241838
NAYIF-1 (EO-88)         
1 42017U 17008BX  21167.70978313  .00002696  00000-0  10075-3 0  9994
2 42017  97.3153 235.3227 0007724 108.0619 252.1463 15.28193713241148
ZHUHAI-1 02 (CAS-4B)    
1 42759U 17034B   21168.16157988  .00000379  00000-0  36062-4 0  9995
2 42759  43.0162 182.6867 0007838 170.3484 273.3675 15.10229917221102
ZHUHAI-1 01 (CAS-4A)    
1 42761U 17034D   21168.08969727  .00000363  00000-0  35083-4 0  9996
2 42761  43.0161 182.1363 0008295 171.3850 290.0675 15.10316653221094
MAX VALIER SAT          
1 42778U 17036P   21167.71282511  .00001493  00000-0  65116-4 0  9999
2 42778  97.2547 216.3481 0012138 170.3774 189.7698 15.23616642221170
RADFXSAT (FOX-1B)       
1 43017U 17073E   21167.72460107  .00000670  00000-0  57561-4 0  9998
2 43017  97.7071  71.7405 0253656 303.0001  54.7063 14.79566915193018
FOX-1D (AO-92)          
1 43137U 18004AC  21167.74238207  .00001654  00000-0  68616-4 0  9998
2 43137  97.4065 241.7808 0008055 203.5270 156.5601 15.25265092190559
DIWATA-2B               
1 43678U 18084H   21168.18524626  .00000470  00000-0  52332-4 0  9991
2 43678  97.9242 293.4628 0011174  56.7907 303.4385 14.91757965143395
ES'HAIL 2               
1 43700U 18090A   21168.07688473  .00000152  00000-0  00000+0 0  9990
2 43700   0.0163 325.2413 0001203 142.6662 211.1621  1.00274326  9603
FOX-1CLIFF (AO-95)      
1 43770U 18099N   21167.71388136  .00000125  00000-0  16475-4 0  9997
2 43770  97.6647 237.9174 0015788  63.3539 296.9296 14.95328090138346
ITASAT 1                
1 43786U 18099AE  21167.76704502  .00000052  00000-0  97619-5 0  9997
2 43786  97.6669 238.6469 0016452  56.6123 303.6669 14.95624259138385
JY1SAT (JO-97)          
1 43803U 18099AX  21168.13238340  .00000741  00000-0  71232-4 0  9998
2 43803  97.6627 238.7561 0016222  55.9578 304.3181 14.95868984138443
UWE-4                   
1 43880U 18111E   21167.98250951  .00000027  00000-0  73917-5 0  9992
2 43880  97.6876  75.7242 0013677 102.8224 257.4527 14.96877065133011
PSAT2 (NO-104)          
1 44354U 19036R   21167.24993866  .00012111  00000-0  15787-3 0  9990
2 44354  28.5297 135.0684 0325511 262.9684  93.3788 15.13467497108796
BRICSAT2 (NO-103)       
1 44355U 19036S   21168.14470306  .00044625  00000-0  48980-3 0  9996
2 44355  28.5262  84.1216 0263475 345.9970  13.3433 15.29588136109379
JAISAT-1                
1 44419U 19038F   21168.17549156  .00001445  00000-0  83529-4 0  9994
2 44419  97.5884 132.8770 0019889 317.1973  42.7709 15.13774977107759
DUCHIFAT-3              
1 44854U 19089C   21168.19397937  .00000557  00000-0  50850-4 0  9997
2 44854  36.9643 102.1676 0007029 141.7105 218.4154 14.99504199 83061
RS-44 & BREEZE-KM R/B   
1 44909U 19096E   21167.84587866  .00000037  00000-0  96633-4 0  9991
2 44909  82.5207 113.2167 0218560  94.4654 268.1449 12.79710220 68747
ORBITAL FACTORY 2 (OF-2)
1 45113U 19071C   21167.81975012  .00002330  00000-0  76790-4 0  9993
2 45113  51.6431  40.5851 0011172 292.5865  67.3935 15.35774602 77072
HUSKYSAT-1 (HO-107)     
1 45119U 19071J   21167.83116817  .00002634  00000-0  85315-4 0  9991
2 45119  51.6428  39.9069 0010585 289.0288  70.9548 15.35801148 77070
BY70-2                  
1 45857U 20042B   21168.17086780  .00001379  00000-0  20266-3 0  9991
2 45857  97.9837 243.9203 0010458 205.6969 154.3740 14.77033766 51501
SALSAT                  
1 46495U 20068K   21167.92859462 -.00000329  00000-0 -19559-4 0  9995
2 46495  97.6950 105.4276 0018848  73.8765 286.4529 15.03455700 39251
BY70-3                  
1 46839U 20079N   21168.18556571  .00003557  00000-0  11152-3 0  9997
2 46839  97.2398 242.0462 0006529 194.1538 250.2300 15.33688033 34169
RADFXSAT-2 (AO-109)     
1 47311U 21002C   21168.02951347  .00001401  00000-0  72581-4 0  9993
2 47311  60.6848 292.7821 0036758  47.9396 312.4808 15.21656950 22817
UVSQ-SAT                
1 47438U 21006AB  21167.72033820  .00001108  00000-0  66047-4 0  9994
2 47438  97.4872 228.9573 0014457 100.0089 260.2774 15.13141679 21942
DIY-1 (ARDUIQUBE)       
1 47963U 21022AH  21167.69781130  .00001812  00000-0  12396-3 0  9994
2 47963  97.5580  70.0448 0018476 312.0495  47.9160 15.07250042 11788
